CCSDS_OMM_VERS = 2.0
CREATION_DATE  = 
ORIGINATOR     = 

OBJECT_NAME    = SL-3 R/B
OBJECT_ID      = 1982-039B
CENTER_NAME    = EARTH
REF_FRAME      = TEME
TIME_SYSTEM    = UTC
MEAN_ELEMENT_THEORY = SGP/SGP4

EPOCH          = 2025-11-04T04:32:23.812800
MEAN_MOTION    = 15.09210315
ECCENTRICITY   = .00326776
INCLINATION    = 81.1827
RA_OF_ASC_NODE = 0.4177
ARG_OF_PERICENTER = 17.6388
MEAN_ANOMALY   = 342.5963

EPHEMERIS_TYPE = 0
CLASSIFICATION_TYPE = U
NORAD_CAT_ID   = 13154
ELEMENT_SET_NO = 999
REV_AT_EPOCH   = 36270
BSTAR          = .16368251E-3
MEAN_MOTION_DOT = .2657E-4
MEAN_MOTION_DDOT = 0

CCSDS_OMM_VERS = 2.0
CREATION_DATE  = 
ORIGINATOR     = 

OBJECT_NAME    = SL-3 R/B
OBJECT_ID      = 1982-079B
CENTER_NAME    = EARTH
REF_FRAME      = TEME
TIME_SYSTEM    = UTC
MEAN_ELEMENT_THEORY = SGP/SGP4

EPOCH          = 2025-11-04T06:04:39.554112
MEAN_MOTION    = 15.22984969
ECCENTRICITY   = .00247538
INCLINATION    = 81.1475
RA_OF_ASC_NODE = 341.0128
ARG_OF_PERICENTER = 227.5208
MEAN_ANOMALY   = 132.3933

EPHEMERIS_TYPE = 0
CLASSIFICATION_TYPE = U
NORAD_CAT_ID   = 13403
ELEMENT_SET_NO = 999
REV_AT_EPOCH   = 35859
BSTAR          = .24358462E-3
MEAN_MOTION_DOT = .5798E-4
MEAN_MOTION_DDOT = 0

CCSDS_OMM_VERS = 2.0
CREATION_DATE  = 
ORIGINATOR     = 

OBJECT_NAME    = SL-14 R/B
OBJECT_ID      = 1982-092B
CENTER_NAME    = EARTH
REF_FRAME      = TEME
TIME_SYSTEM    = UTC
MEAN_ELEMENT_THEORY = SGP/SGP4

EPOCH          = 2025-11-04T07:44:30.352992
MEAN_MOTION    = 14.86486139
ECCENTRICITY   = .00204961
INCLINATION    = 82.5668
RA_OF_ASC_NODE = 258.6382
ARG_OF_PERICENTER = 2.0112
MEAN_ANOMALY   = 114.2125

EPHEMERIS_TYPE = 0
CLASSIFICATION_TYPE = U
NORAD_CAT_ID   = 13553
ELEMENT_SET_NO = 999
REV_AT_EPOCH   = 31030
BSTAR          = .80987177E-4
MEAN_MOTION_DOT = .743E-5
MEAN_MOTION_DDOT = 0

CCSDS_OMM_VERS = 2.0
CREATION_DATE  = 
ORIGINATOR     = 

OBJECT_NAME    = SL-3 R/B
OBJECT_ID      = 1983-010B
CENTER_NAME    = EARTH
REF_FRAME      = TEME
TIME_SYSTEM    = UTC
MEAN_ELEMENT_THEORY = SGP/SGP4

EPOCH          = 2025-11-04T01:12:57.234816
MEAN_MOTION    = 15.42059849
ECCENTRICITY   = .00182997
INCLINATION    = 81.1031
RA_OF_ASC_NODE = 155.7936
ARG_OF_PERICENTER = 121.8284
MEAN_ANOMALY   = 238.4743

EPHEMERIS_TYPE = 0
CLASSIFICATION_TYPE = U
NORAD_CAT_ID   = 13819
ELEMENT_SET_NO = 999
REV_AT_EPOCH   = 33855
BSTAR          = .33162015E-3
MEAN_MOTION_DOT = .14284E-3
MEAN_MOTION_DDOT = 0

CCSDS_OMM_VERS = 2.0
CREATION_DATE  = 
ORIGINATOR     = 

OBJECT_NAME    = SL-3 R/B
OBJECT_ID      = 1983-075B
CENTER_NAME    = EARTH
REF_FRAME      = TEME
TIME_SYSTEM    = UTC
MEAN_ELEMENT_THEORY = SGP/SGP4

EPOCH          = 2025-11-04T05:02:44.018016
MEAN_MOTION    = 15.34999168
ECCENTRICITY   = .00220269
INCLINATION    = 97.6095
RA_OF_ASC_NODE = 303.4333
ARG_OF_PERICENTER = 322.4655
MEAN_ANOMALY   = 37.5049

EPHEMERIS_TYPE = 0
CLASSIFICATION_TYPE = U
NORAD_CAT_ID   = 14208
ELEMENT_SET_NO = 999
REV_AT_EPOCH   = 31088
BSTAR          = .36940409E-3
MEAN_MOTION_DOT = .12561E-3
MEAN_MOTION_DDOT = 0

CCSDS_OMM_VERS = 2.0
CREATION_DATE  = 
ORIGINATOR     = 

OBJECT_NAME    = COSMOS 1536
OBJECT_ID      = 1984-013A
CENTER_NAME    = EARTH
REF_FRAME      = TEME
TIME_SYSTEM    = UTC
MEAN_ELEMENT_THEORY = SGP/SGP4

EPOCH          = 2025-11-04T06:50:06.256032
MEAN_MOTION    = 15.21809418
ECCENTRICITY   = .00158134
INCLINATION    = 82.5471
RA_OF_ASC_NODE = 232.2753
ARG_OF_PERICENTER = 11.9514
MEAN_ANOMALY   = 348.2094

EPHEMERIS_TYPE = 0
CLASSIFICATION_TYPE = U
NORAD_CAT_ID   = 14699
ELEMENT_SET_NO = 999
REV_AT_EPOCH   = 25353
BSTAR          = .39543476E-3
MEAN_MOTION_DOT = .904E-4
MEAN_MOTION_DDOT = 0

CCSDS_OMM_VERS = 2.0
CREATION_DATE  = 
ORIGINATOR     = 

OBJECT_NAME    = SL-14 R/B
OBJECT_ID      = 1984-027B
CENTER_NAME    = EARTH
REF_FRAME      = TEME
TIME_SYSTEM    = UTC
MEAN_ELEMENT_THEORY = SGP/SGP4

EPOCH          = 2025-11-04T04:04:29.937216
MEAN_MOTION    = 14.85814568
ECCENTRICITY   = .00188138
INCLINATION    = 82.5437
RA_OF_ASC_NODE = 2.7251
ARG_OF_PERICENTER = 33.5806
MEAN_ANOMALY   = 326.6599

EPHEMERIS_TYPE = 0
CLASSIFICATION_TYPE = U
NORAD_CAT_ID   = 14820
ELEMENT_SET_NO = 999
REV_AT_EPOCH   = 22899
BSTAR          = .62703617E-4
MEAN_MOTION_DOT = .571E-5
MEAN_MOTION_DDOT = 0

CCSDS_OMM_VERS = 2.0
CREATION_DATE  = 
ORIGINATOR     = 

OBJECT_NAME    = SL-8 R/B
OBJECT_ID      = 1985-006B
CENTER_NAME    = EARTH
REF_FRAME      = TEME
TIME_SYSTEM    = UTC
MEAN_ELEMENT_THEORY = SGP/SGP4

EPOCH          = 2025-11-04T07:02:29.205312
MEAN_MOTION    = 14.37685436
ECCENTRICITY   = .00174758
INCLINATION    = 74.0430
RA_OF_ASC_NODE = 131.8679
ARG_OF_PERICENTER = 76.9660
MEAN_ANOMALY   = 96.2575

EPHEMERIS_TYPE = 0
CLASSIFICATION_TYPE = U
NORAD_CAT_ID   = 15483
ELEMENT_SET_NO = 999
REV_AT_EPOCH   = 13600
BSTAR          = .10724454E-3
MEAN_MOTION_DOT = .297E-5
MEAN_MOTION_DDOT = 0

CCSDS_OMM_VERS = 2.0
CREATION_DATE  = 
ORIGINATOR     = 

OBJECT_NAME    = SL-12 R/B(2)
OBJECT_ID      = 1985-042D
CENTER_NAME    = EARTH
REF_FRAME      = TEME
TIME_SYSTEM    = UTC
MEAN_ELEMENT_THEORY = SGP/SGP4

EPOCH          = 2025-11-04T04:40:09.132960
MEAN_MOTION    = 14.21933166
ECCENTRICITY   = .00368806
INCLINATION    = 71.1093
RA_OF_ASC_NODE = 352.8529
ARG_OF_PERICENTER = 318.1256
MEAN_ANOMALY   = 98.7432

EPHEMERIS_TYPE = 0
CLASSIFICATION_TYPE = U
NORAD_CAT_ID   = 15772
ELEMENT_SET_NO = 999
REV_AT_EPOCH   = 9655
BSTAR          = .73082613E-4
MEAN_MOTION_DOT = .115E-5
MEAN_MOTION_DDOT = 0

CCSDS_OMM_VERS = 2.0
CREATION_DATE  = 
ORIGINATOR     = 

OBJECT_NAME    = SL-14 R/B
OBJECT_ID      = 1985-069B
CENTER_NAME    = EARTH
REF_FRAME      = TEME
TIME_SYSTEM    = UTC
MEAN_ELEMENT_THEORY = SGP/SGP4

EPOCH          = 2025-11-04T06:14:06.701856
MEAN_MOTION    = 14.86255367
ECCENTRICITY   = .00174141
INCLINATION    = 82.5250
RA_OF_ASC_NODE = 142.8803
ARG_OF_PERICENTER = 246.2813
MEAN_ANOMALY   = 113.6577

EPHEMERIS_TYPE = 0
CLASSIFICATION_TYPE = U
NORAD_CAT_ID   = 15945
ELEMENT_SET_NO = 999
REV_AT_EPOCH   = 15420
BSTAR          = .60992274E-4
MEAN_MOTION_DOT = .561E-5
MEAN_MOTION_DDOT = 0

CCSDS_OMM_VERS = 2.0
CREATION_DATE  = 
ORIGINATOR     = 

OBJECT_NAME    = SL-16 R/B
OBJECT_ID      = 1985-097B
CENTER_NAME    = EARTH
REF_FRAME      = TEME
TIME_SYSTEM    = UTC
MEAN_ELEMENT_THEORY = SGP/SGP4

EPOCH          = 2025-11-04T07:05:48.536160
MEAN_MOTION    = 14.16576772
ECCENTRICITY   = .00051159
INCLINATION    = 71.0046
RA_OF_ASC_NODE = 44.5362
ARG_OF_PERICENTER = 85.4463
MEAN_ANOMALY   = 338.9523

EPHEMERIS_TYPE = 0
CLASSIFICATION_TYPE = U
NORAD_CAT_ID   = 16182
ELEMENT_SET_NO = 999
REV_AT_EPOCH   = 6947
BSTAR          = -.31991974E-4
MEAN_MOTION_DOT = -.112E-5
MEAN_MOTION_DDOT = 0

CCSDS_OMM_VERS = 2.0
CREATION_DATE  = 
ORIGINATOR     = 

OBJECT_NAME    = SL-14 R/B
OBJECT_ID      = 1986-006B
CENTER_NAME    = EARTH
REF_FRAME      = TEME
TIME_SYSTEM    = UTC
MEAN_ELEMENT_THEORY = SGP/SGP4

EPOCH          = 2025-11-04T06:24:42.153984
MEAN_MOTION    = 14.86591148
ECCENTRICITY   = .0075996
INCLINATION    = 82.5297
RA_OF_ASC_NODE = 17.7458
ARG_OF_PERICENTER = 329.4731
MEAN_ANOMALY   = 30.2072

EPHEMERIS_TYPE = 0
CLASSIFICATION_TYPE = U
NORAD_CAT_ID   = 16496
ELEMENT_SET_NO = 999
REV_AT_EPOCH   = 13057
BSTAR          = .75767558E-4
MEAN_MOTION_DOT = .733E-5
MEAN_MOTION_DDOT = 0

