SL-3 R/B                
1 13154U 82039B   25308.18916450  .00002657  00000+0  16368-3 0  9994
2 13154  81.1827   0.4177 0032677  17.6388 342.5963 15.09210315362707
SL-3 R/B                
1 13403U 82079B   25308.25323558  .00005798  00000+0  24358-3 0  9991
2 13403  81.1475 341.0128 0024753 227.5208 132.3933 15.22984969358594
SL-14 R/B               
1 13553U 82092B   25308.32257353  .00000743  00000+0  80987-4 0  9995
2 13553  82.5668 258.6382 0020496   2.0112 114.2125 14.86486139310308
SL-3 R/B                
1 13819U 83010B   25308.05066244  .00014284  00000+0  33162-3 0  9995
2 13819  81.1031 155.7936 0018299 121.8284 238.4743 15.42059849338551
SL-3 R/B                
1 14208U 83075B   25308.21023169  .00012561  00000+0  36940-3 0  9999
2 14208  97.6095 303.4333 0022026 322.4655  37.5049 15.34999168310884
COSMOS 1536             
1 14699U 84013A   25308.28479463  .00009040  00000+0  39543-3 0  9995
2 14699  82.5471 232.2753 0015813  11.9514 348.2094 15.21809418253538
SL-14 R/B               
1 14820U 84027B   25308.16979094  .00000571  00000+0  62704-4 0  9994
2 14820  82.5437   2.7251 0018813  33.5806 326.6599 14.85814568228999
SL-8 R/B                
1 15483U 85006B   25308.29339358  .00000297  00000+0  10724-3 0  9994
2 15483  74.0430 131.8679 0017475  76.9660  96.2575 14.37685436136005
SL-12 R/B(2)            
1 15772U 85042D   25308.19455015  .00000115  00000+0  73083-4 0  9990
2 15772  71.1093 352.8529 0036880 318.1256  98.7432 14.21933166 96554
SL-14 R/B               
1 15945U 85069B   25308.25979979  .00000561  00000+0  60992-4 0  9998
2 15945  82.5250 142.8803 0017414 246.2813 113.6577 14.86255367154206
SL-16 R/B               
1 16182U 85097B   25308.29570065 -.00000112  00000+0 -31992-4 0  9992
2 16182  71.0046  44.5362 0005115  85.4463 338.9523 14.16576772 69479
SL-14 R/B               
1 16496U 86006B   25308.26715456  .00000733  00000+0  75768-4 0  9999
2 16496  82.5297  17.7458 0075996 329.4731  30.2072 14.86591148130575
